STARLINK-31539          
1 59539U 24074F   26068.16809474 -.00000464  00000+0 -73437-5 0  9993
2 59539  43.0066 346.5499 0001127 353.7108   6.3729 15.27566314105935
REAL                    
1 64875U 25154G   26068.72233414  .00022901  00000+0  82904-3 0  9994
2 64875  97.4133 137.2581 0001853 118.5876 241.5550 15.28408058 34830
